QIANFAN-57              
1 62787U 25016C   25202.62076553  .00000122  00000+0  17012-3 0  9997
2 62787  88.9865 118.0481 0017178  48.9757 311.2876 13.50959000 27743
QIANFAN-58              
1 62788U 25016D   25202.81420172  .00000111  00000+0  15254-3 0  9993
2 62788  88.9834 117.9049 0015915  44.0878 316.1539 13.50952491 27811
QIANFAN-59              
1 62789U 25016E   25202.82663669  .00000126  00000+0  17648-3 0  9990
2 62789  88.9858 117.9399 0016873  46.6943 313.5612 13.50956921 27816
QIANFAN-60              
1 62790U 25016F   25202.52200185  .00000115  00000+0  15979-3 0  9992
2 62790  88.9839 117.9781 0017323  45.3246 314.9314 13.50965141 27756
QIANFAN-61              
1 62791U 25016G   25202.83074554  .00000120  00000+0  16771-3 0  9993
2 62791  88.9907 118.0062 0016712  43.5733 316.6735 13.50954827 27811
QIANFAN-62              
1 62792U 25016H   25202.83467558  .00000128  00000+0  17892-3 0  9997
2 62792  88.9853 117.9522 0018120  43.4997 316.7580 13.50953728 27804
QIANFAN-63              
1 62793U 25016J   25202.55075868  .00000125  00000+0  17432-3 0  9993
2 62793  88.9860 117.9202 0018018  48.2933 311.9756 13.50959742 27801
QIANFAN-64              
1 62794U 25016K   25202.54253464  .00000118  00000+0  16378-3 0  9993
2 62794  88.9847 117.9205 0015744  43.3241 316.9145 13.50959402 27799
